IRIDIUM 181             
1 56726U 23068S   25270.20940181  .00000579  00000+0  16598-3 0  9998
2 56726  86.4574 166.6725 0001978  69.8927 290.2486 14.43303979124507
IRIDIUM 177             
1 56727U 23068T   25270.01432014  .00001173  00000+0  15095-3 0  9991
2 56727  86.1914  93.7809 0002219  84.8867 275.2607 14.80223450127434
IRIDIUM 174             
1 56728U 23068U   25269.98185726  .00000640  00000+0  97496-4 0  9995
2 56728  86.6051 103.7554 0002385  97.0685 263.0804 14.72259940127291
IRIDIUM 178             
1 56729U 23068V   25270.13862787  .00001965  00000+0  25519-3 0  9991
2 56729  86.6557 135.3101 0002553  81.8628 278.2883 14.80230161127453
IRIDIUM 179             
1 56730U 23068W   25270.20086010  .00002202  00000+0  28639-3 0  9999
2 56730  86.6806 143.4680 0002812  75.4559 284.6974 14.80220131127463
2023-069A               
1 56731U 23069A   25270.27840640  .00018377  00000+0  40830-3 0  9992
2 56731  40.9969 303.9607 0030034 223.0815 136.7658 15.42758721132464
2023-069B               
1 56732U 23069B   25270.08153214  .00011402  00000+0  64437-3 0  9997
2 56732  41.0075 123.2225 0006220 282.3002  77.7116 15.12924102130433
NEXTSAT-2               
1 56743U 23072A   25270.30055880  .00011051  00000+0  47307-3 0  9995
2 56743  97.5361 100.5093 0005635 213.7863 146.3015 15.22961264129511
SNIPE 4                 
1 56744U 23072B   25270.25312912  .00025239  00000+0  86150-3 0  9994
2 56744  97.5463 104.8467 0007266 175.5620 184.5686 15.30289446129731
SNIPE 2                 
1 56745U 23072C   25270.32367769  .00029751  00000+0  95212-3 0  9995
2 56745  97.5489 106.6218 0005438 205.9226 154.1743 15.32346161129796
2023-072D               
1 56746U 23072D   25270.31226634  .00039193  00000+0  96676-3 0  9996
2 56746  97.5254 109.2029 0003953 177.6395 182.4870 15.40429760130050
2023-072E               
1 56747U 23072E   25270.32363514  .00026662  00000+0  80906-3 0  9993
2 56747  97.5305 106.8660 0004530 195.6722 164.4381 15.34070049129890
2023-072F               
1 56748U 23072F   25270.32821339  .00014345  00000+0  57421-3 0  9999
2 56748  97.5236 100.8516 0005674 215.5458 144.5402 15.25161531129627
2023-072G               
1 56749U 23072G   25270.27592703  .00028568  00000+0  83860-3 0  9992
2 56749  97.5144 105.3136 0004682 198.1186 161.9891 15.35104597129924
TROPICS-03              
1 56753U 23073B   25269.77708152  .00062766  00000+0  67411-3 0  9990
2 56753  32.7296  59.1540 0005270  40.6284 319.4794 15.62494432130639
KONDOR-FKA NO. 1        
1 56756U 23074A   25268.66027450  .00003321  00000+0  15880-3 0  9991
2 56756  97.4403 102.0044 0001674  90.2027 269.9400 15.19691432129516
ARABSAT-7B (BADR-8)     
1 56757U 23075A   25270.15112053  .00000149  00000+0  00000+0 0  9993
2 56757   0.0736  21.6288 0001523 350.1522  74.8318  1.00270950  8489
NVS-01 (IRNSS-1J)       
1 56759U 23076A   25270.24298758 -.00000334  00000+0  00000+0 0  9990
2 56759   2.8136 254.1325 0006949 348.6998 340.4688  1.00270078  8478
STARLINK-6197           
1 56767U 23078A   25269.71569875  .00043656  00000+0  27987-2 0  9991
2 56767  69.9966  52.7409 0004040 353.6287   6.4825 15.08287321127751
STARLINK-6198           
1 56768U 23078B   25270.30466736 -.00000546  00000+0 -37935-4 0  9990
2 56768  70.0007  16.2729 0003145 265.9585  94.1215 14.98333303128705
STARLINK-6342           
1 56770U 23078D   25269.83798380 -.00000489  00000+0 -33173-4 0  9998
2 56770  70.0003  57.5886 0003220 267.3740  92.7050 14.98334718127643
STARLINK-6275           
1 56772U 23078F   25269.83364802  .00000367  00000+0  38522-4 0  9994
2 56772  70.0004  57.5734 0003150 270.6625  89.4173 14.98326866127643
STARLINK-6296           
1 56773U 23078G   25270.20431405  .00001109  00000+0  10073-3 0  9997
2 56773  70.0010 356.8337 0003130 268.5604  91.5196 14.98334934129170
STARLINK-6190           
1 56774U 23078H   25269.85451200  .00000742  00000+0  69928-4 0  9998
2 56774  70.0004  57.6432 0003045 268.8715  91.2095 14.98333379127644
STARLINK-6292           
1 56775U 23078J   25270.26690614 -.00000579  00000+0 -40713-4 0  9991
2 56775  70.0002 356.6515 0003336 264.1638  95.9140 14.98341484129182
STARLINK-6274           
1 56776U 23078K   25269.69133144  .00000407  00000+0  41876-4 0  9996
2 56776  70.0018  18.1395 0002890 267.4758  92.6071 14.98326691128605
STARLINK-5582           
1 56777U 23078L   25269.71660293  .00000204  00000+0  24918-4 0  9993
2 56777  70.0015  38.0954 0003081 269.2906  90.7900 14.98324654128116
STARLINK-6304           
1 56778U 23078M   25270.28799780 -.00000298  00000+0 -17199-4 0  9990
2 56778  70.0018  16.6105 0003002 265.8141  94.2675 14.98330431128697
STARLINK-6231           
1 56779U 23078N   25270.26296072  .00003861  00000+0  33121-3 0  9994
2 56779  70.0006  16.5207 0003194 265.8102  94.2692 14.98325846128688
STARLINK-5963           
1 56780U 23078P   25269.71256838  .00000998  00000+0  91422-4 0  9997
2 56780  70.0013  37.7006 0003168 270.4710  89.6086 14.98327244128126
STARLINK-5989           
1 56781U 23078Q   25269.76249290  .00000233  00000+0  27320-4 0  9995
2 56781  70.0013  37.8529 0003156 272.6172  87.4625 14.98323770128126
STARLINK-6352           
1 56782U 23078R   25270.28382310 -.00000204  00000+0 -92766-5 0  9993
2 56782  70.0021  16.5946 0002874 266.4270  93.6561 14.98332549128693
STARLINK-6357           
1 56783U 23078S   25269.74139077  .00000641  00000+0  61470-4 0  9993
2 56783  70.0015  17.9113 0003070 271.3098  88.7710 14.98331582128619
STARLINK-6354           
1 56784U 23078T   25269.67880649  .00000761  00000+0  71561-4 0  9999
2 56784  70.0020  18.0943 0002918 268.6686  91.4139 14.98329346128601
STARLINK-5931           
1 56785U 23078U   25269.70407801 -.00000604  00000+0 -42833-4 0  9997
2 56785  70.0014  38.0490 0003019 265.3565  94.7249 14.98333057128801
STARLINK-6341           
1 56786U 23078V   25270.27130108  .00000017  00000+0  91990-5 0  9990
2 56786  70.0018  16.5513 0002838 270.2809  89.8025 14.98328390128695
STARLINK-6326           
1 56787U 23078W   25269.71217439  .00000847  00000+0  78748-4 0  9997
2 56787  70.0013  17.8111 0003079 267.1482  92.9325 14.98326355128618
STARLINK-6336           
1 56788U 23078X   25270.26713027 -.00000158  00000+0 -54839-5 0  9997
2 56788  70.0039  16.5382 0002609 266.2721  93.8140 14.98338129128692
STARLINK-6345           
1 56790U 23078Z   25270.25020629  .00000848  00000+0  78891-4 0  9995
2 56790  70.0008 356.5925 0003178 270.5786  89.5009 14.98322723129186
STARLINK-5977           
1 56791U 23078AA  25269.73326705  .00002724  00000+0  23587-3 0  9997
2 56791  70.0010  37.7517 0003192 270.7773  89.3020 14.98343817128120
STARLINK-6046           
1 56792U 23078AB  25269.64148912  .00000887  00000+0  82124-4 0  9991
2 56792  70.0011  38.2332 0003226 270.3448  89.7342 14.98328388128101
STARLINK-6052           
1 56793U 23078AC  25269.74997877  .00002192  00000+0  19149-3 0  9992
2 56793  70.0015  37.8085 0002867 270.9851  89.0979 14.98322399128127
STARLINK-6060           
1 56794U 23078AD  25270.25002315  .00045924  00000+0  38329-2 0  9995
2 56794  70.0022  16.5287 0003365 267.6499  45.2300 14.98315209  5813
STARLINK-6061           
1 56795U 23078AE  25269.69981566  .00001107  00000+0  10058-3 0  9991
2 56795  70.0016  17.7643 0003196 266.8228  93.2565 14.98329294128618
STARLINK-6049           
1 56796U 23078AF  25269.76666309  .00000135  00000+0  19127-4 0  9992
2 56796  70.0013  37.8677 0003352 272.6256  87.4519 14.98338599128124
STARLINK-6058           
1 56797U 23078AG  25269.71242430  .00001486  00000+0  13226-3 0  9996
2 56797  70.0015  38.0719 0002940 268.7438  91.3384 14.98333518128116
STARLINK-5953           
1 56799U 23078AJ  25269.75413818  .00001352  00000+0  12110-3 0  9995
2 56799  70.0012  37.8193 0003235 270.8002  89.2786 14.98329908128128
STARLINK-6036           
1 56800U 23078AK  25269.75831320  .00000695  00000+0  66017-4 0  9995
2 56800  70.0015  37.8374 0003001 269.8197  90.2618 14.98329047128129
STARLINK-6087           
1 56801U 23078AL  25270.24208119  .00000865  00000+0  80284-4 0  9997
2 56801  70.0011  16.4476 0003350 270.1380  89.9395 14.98330509128692
STARLINK-6070           
1 56802U 23078AM  25269.65821309  .00126598  00000+0  10598-1 0  9993
2 56802  70.0007  18.0287 0003797 328.5597  31.5335 14.97699064128600
STARLINK-6029           
1 56803U 23078AN  25269.74579918 -.00000961  00000+0 -72748-4 0  9995
2 56803  70.0014  37.7942 0003058 270.3923  89.6886 14.98317144128121
STARLINK-6069           
1 56804U 23078AP  25269.71635397  .00000543  00000+0  53311-4 0  9996
2 56804  70.0013  17.8248 0002996 270.9519  89.1296 14.98323168129287
STARLINK-6064           
1 56805U 23078AQ  25270.25461328 -.00001374  00000+0 -10740-3 0  9992
2 56805  70.0006  16.4897 0003281 269.7693  90.3090 14.98325798128693
STARLINK-6072           
1 56806U 23078AR  25270.28357065  .00000098  00000+0  15976-4 0  9995
2 56806  70.0008 356.3093 0002750 271.1312  88.9532 14.98334002129182
STARLINK-6073           
1 56807U 23078AS  25269.69965236  .00000549  00000+0  53816-4 0  9990
2 56807  70.0015  17.7634 0003350 271.8197  88.2579 14.98325935128611
STARLINK-6042           
1 56808U 23078AT  25270.23942977  .00000072  00000+0  13838-4 0  9991
2 56808  69.9995 326.6568 0003437 270.7034  89.3731 14.98334019129939
STARLINK-6040           
1 56809U 23078AU  25269.65815821  .00001788  00000+0  15759-3 0  9991
2 56809  70.0012  37.8885 0003454 268.3794  91.6970 14.98337753128119
STARLINK-6031           
1 56810U 23078AV  25269.74162296  .00004525  00000+0  38662-3 0  9994
2 56810  70.0027  37.7790 0002751 267.8958  92.1886 14.98349237128129
STARLINK-6063           
1 56811U 23078AW  25270.28774878 -.00000505  00000+0 -34536-4 0  9994
2 56811  70.0011 356.3222 0002768 267.6440  92.4402 14.98329661129199
